NORAD_CAT_ID,OBJECT_NAME,OBJECT_TYPE,EPOCH,MEAN_MOTION,ECCENTRICITY,INCLINATION,RA_OF_ASC_NODE,ARG_OF_PERICENTER,MEAN_ANOMALY,BSTAR,MEAN_MOTION_DOT,MEAN_MOTION_DDOT,TLE_LINE0,TLE_LINE1,TLE_LINE2,SEMIMAJOR_AXIS,PERIOD,APOGEE,PERIGEE,DECAYED
55927.0,STARLINK-5919,PAYLOAD,2024-01-20 15:03:18,14.9832772,0.0002762,70.0008,108.6525,271.705,88.3792,-0.00011378,-1.45e-05,0.0,0 STARLINK-5919,1 55927U 23037P   24020.62729790 -.00001450  00000-0 -11378-3 0  9998,2 55927  70.0008 108.6525 0002762 271.7050  88.3792 14.98327720 46797,6950.2,96.107,573.985,570.145,0.0
55927.0,STARLINK-5919,PAYLOAD,2024-01-21 07:04:39,14.9834522,0.000263,70.0007,106.9684,260.5642,99.522,-0.0005733,-6.929e-05,0.0,0 STARLINK-5919,1 55927U 23037P   24021.29490277 -.00006929  00000-0 -57330-3 0  9991,2 55927  70.0007 106.9684 0002630 260.5642  99.5220 14.98345220 46896,6950.146,96.106,573.839,570.183,0.0
55927.0,STARLINK-5919,PAYLOAD,2024-01-21 15:05:19,14.98345784,0.0002784,70.0005,106.1275,266.9412,93.1428,-0.000495,-5.997e-05,0.0,0 STARLINK-5919,1 55927U 23037P   24021.62869763 -.00005997  00000-0 -49500-3 0  9992,2 55927  70.0005 106.1275 0002784 266.9412  93.1428 14.98345784 47286,6950.144,96.106,573.944,570.074,0.0
55927.0,STARLINK-5919,PAYLOAD,2024-01-22 07:06:40,14.98340161,0.0002855,70.0002,104.4438,259.9406,100.1431,-0.00019501,-2.42e-05,0.0,0 STARLINK-5919,1 55927U 23037P   24022.29629704 -.00002420  00000-0 -19501-3 0  9991,2 55927  70.0002 104.4438 0002855 259.9406 100.1431 14.98340161 47040,6950.161,96.106,574.011,570.042,0.0
55927.0,STARLINK-5919,PAYLOAD,2024-01-22 15:07:20,14.98341279,0.0002382,70.0015,103.604,266.5094,93.5792,-0.0001041,-1.335e-05,0.0,0 STARLINK-5919,1 55927U 23037P   24022.63009467 -.00001335  00000-0 -10410-3 0  9991,2 55927  70.0015 103.6040 0002382 266.5094  93.5792 14.98341279 47435,6950.158,96.106,573.679,570.367,0.0
55927.0,STARLINK-5919,PAYLOAD,2024-01-23 07:08:43,14.98300107,0.0003304,69.9999,101.9194,274.0548,86.0233,-0.0001574,-1.969e-05,0.0,0 STARLINK-5919,1 55927U 23037P   24023.29772505 -.00001969  00000-0 -15740-3 0  9998,2 55927  69.9999 101.9194 0003304 274.0548  86.0233 14.98300107 47192,6950.285,96.109,574.447,569.854,0.0
55927.0,STARLINK-5919,PAYLOAD,2024-01-23 11:57:07,14.98299749,0.0002992,70.0,101.4147,264.8592,95.2225,-0.0001515,-1.899e-05,0.0,0 STARLINK-5919,1 55927U 23037P   24023.49800829 -.00001899  00000-0 -15150-3 0  9998,2 55927  70.0000 101.4147 0002992 264.8592  95.2225 14.98299749 47562,6950.286,96.109,574.231,570.072,0.0
55927.0,STARLINK-5919,PAYLOAD,2024-01-23 15:09:24,14.98301903,0.000305,70.0,101.0782,265.7465,94.3345,-0.00013128,-1.658e-05,0.0,0 STARLINK-5919,1 55927U 23037P   24023.63152875 -.00001658  00000-0 -13128-3 0  9991,2 55927  70.0000 101.0782 0003050 265.7465  94.3345 14.98301903 47242,6950.28,96.109,574.265,570.025,0.0
55927.0,STARLINK-5919,PAYLOAD,2024-01-24 11:59:05,14.98357072,0.0002653,70.001,98.8909,249.6267,110.4608,0.00035667,4.168e-05,0.0,0 STARLINK-5919,1 55927U 23037P   24024.49936442  .00004168  00000-0  35667-3 0  9995,2 55927  70.0010  98.8909 0002653 249.6267 110.4608 14.98357072 47718,6950.109,96.105,573.818,570.13,0.0
55927.0,STARLINK-5919,PAYLOAD,2024-01-24 13:35:13,14.98354245,0.0002508,70.0018,98.7224,237.8323,122.2593,0.00038166,4.467e-05,0.0,0 STARLINK-5919,1 55927U 23037P   24024.56612461  .00004467  00000-0  38166-3 0  9994,2 55927  70.0018  98.7224 0002508 237.8323 122.2593 14.98354245 47382,6950.118,96.105,573.726,570.24,0.0
55927.0,STARLINK-5919,PAYLOAD,2024-01-24 15:11:20,14.98359121,0.0002689,70.0006,98.5535,253.435,106.6513,0.00037723,4.414e-05,0.0,0 STARLINK-5919,1 55927U 23037P   24024.63288091  .00004414  00000-0  37723-3 0  9990,2 55927  70.0006  98.5535 0002689 253.4350 106.6513 14.98359121 47393,6950.103,96.105,573.837,570.099,0.0
55927.0,STARLINK-5919,PAYLOAD,2024-01-25 12:01:07,14.98325571,0.00031,70.0021,96.3709,222.6702,137.4216,0.00032914,3.836e-05,0.0,0 STARLINK-5919,1 55927U 23037P   24025.50077676  .00003836  00000-0  32914-3 0  9996,2 55927  70.0021  96.3709 0003100 222.6702 137.4216 14.98325571 47863,6950.207,96.107,574.226,569.917,0.0
55927.0,STARLINK-5919,PAYLOAD,2024-01-25 13:37:15,14.98326869,0.0003017,69.9996,96.1971,262.1141,97.9675,0.00029842,3.469e-05,0.0,0 STARLINK-5919,1 55927U 23037P   24025.56753823  .00003469  00000-0  29842-3 0  9995,2 55927  69.9996  96.1971 0003017 262.1141  97.9675 14.98326869 47537,6950.203,96.107,574.164,569.971,0.0
55927.0,STARLINK-5919,PAYLOAD,2024-01-25 15:13:23,14.98327402,0.0003021,69.9996,96.0287,263.0024,97.0792,0.00029506,3.429e-05,0.0,0 STARLINK-5919,1 55927U 23037P   24025.63429795  .00003429  00000-0  29506-3 0  9994,2 55927  69.9996  96.0287 0003021 263.0024  97.0792 14.98327402 47547,6950.201,96.107,574.166,569.966,0.0
55927.0,STARLINK-5919,PAYLOAD,2024-01-26 12:03:08,14.9834291,0.0002681,70.0004,93.8414,250.2365,109.8505,-0.00030261,-3.703e-05,0.0,0 STARLINK-5919,1 55927U 23037P   24026.50218123 -.00003703  00000-0 -30261-3 0  9999,2 55927  70.0004  93.8414 0002681 250.2365 109.8505 14.98342910 48012,6950.153,96.106,573.881,570.155,0.0
55927.0,STARLINK-5919,PAYLOAD,2024-01-26 13:39:16,14.98342799,0.0002651,70.0004,93.6729,253.1419,106.9449,-0.00030174,-3.692e-05,0.0,0 STARLINK-5919,1 55927U 23037P   24026.56894072 -.00003692  00000-0 -30174-3 0  9998,2 55927  70.0004  93.6729 0002651 253.1419 106.9449 14.98342799 47680,6950.153,96.106,573.861,570.176,0.0
55927.0,STARLINK-5919,PAYLOAD,2024-01-27 12:05:09,14.98327923,0.0002619,70.0007,91.3163,249.0945,110.9934,-3.8924e-05,-5.57e-06,0.0,0 STARLINK-5919,1 55927U 23037P   24027.50358051 -.00000557  00000-0 -38924-4 0  9994,2 55927  70.0007  91.3163 0002619 249.0945 110.9934 14.98327923 48162,6950.199,96.107,573.885,570.244,0.0
55927.0,STARLINK-5919,PAYLOAD,2024-01-27 13:41:17,14.98328079,0.0002685,70.0001,91.1468,262.0435,98.0419,-4.4896e-05,-6.29e-06,0.0,0 STARLINK-5919,1 55927U 23037P   24027.57034115 -.00000629  00000-0 -44896-4 0  9998,2 55927  70.0001  91.1468 0002685 262.0435  98.0419 14.98328079 47834,6950.199,96.107,573.93,570.198,0.0
55927.0,STARLINK-5919,PAYLOAD,2024-01-28 12:07:10,14.98327544,0.0002874,69.9997,88.7894,265.297,94.7861,6.9118e-05,7.32e-06,0.0,0 STARLINK-5919,1 55927U 23037P   24028.50497961  .00000732  00000-0  69118-4 0  9991,2 55927  69.9997  88.7894 0002874 265.2970  94.7861 14.98327544 48313,6950.2,96.107,574.063,570.068,0.0
55927.0,STARLINK-5919,PAYLOAD,2024-01-28 13:43:18,14.98328386,0.0002869,69.9997,88.6213,265.0979,94.9853,7.6608e-05,8.21e-06,0.0,0 STARLINK-5919,1 55927U 23037P   24028.57173897  .00000821  00000-0  76608-4 0  9998,2 55927  69.9997  88.6213 0002869 265.0979  94.9853 14.98328386 47988,6950.198,96.107,574.057,570.069,0.0
55927.0,STARLINK-5919,PAYLOAD,2024-01-29 12:09:10,14.98334136,0.0002884,69.9997,86.2642,266.6488,93.4341,8.7771e-05,9.55e-06,0.0,0 STARLINK-5919,1 55927U 23037P   24029.50637494  .00000955  00000-0  87771-4 0  9991,2 55927  69.9997  86.2642 0002884 266.6488  93.4341 14.98334136 48467,6950.18,96.107,574.05,570.041,0.0
55927.0,STARLINK-5919,PAYLOAD,2024-01-29 13:45:18,14.9833529,0.000287,69.9998,86.096,266.5233,93.5598,9.9636e-05,1.096e-05,0.0,0 STARLINK-5919,1 55927U 23037P   24029.57313362  .00001096  00000-0  99636-4 0  9993,2 55927  69.9998  86.0960 0002870 266.5233  93.5598 14.98335290 48132,6950.177,96.107,574.036,570.047,0.0
55927.0,STARLINK-5919,PAYLOAD,2024-01-30 04:10:31,14.98328093,0.0002567,70.0006,84.582,259.5903,100.4967,1.0399e-05,3.1e-07,0.0,0 STARLINK-5919,1 55927U 23037P   24030.17398013  .00000031  00000-0  10399-4 0  9994,2 55927  70.0006  84.5820 0002567 259.5903 100.4967 14.98328093 48560,6950.199,96.107,573.848,570.28,0.0
55927.0,STARLINK-5919,PAYLOAD,2024-01-30 13:47:20,14.983266,0.0002602,70.0004,83.572,261.1868,98.8997,-1.1037e-05,-2.25e-06,0.0,0 STARLINK-5919,1 55927U 23037P   24030.57454217 -.00000225  00000-0 -11037-4 0  9994,2 55927  70.0004  83.5720 0002602 261.1868  98.8997 14.98326600 48289,6950.203,96.107,573.877,570.26,0.0
55927.0,STARLINK-5919,PAYLOAD,2024-01-31 04:12:32,14.98334993,0.0002632,70.0001,82.0564,265.6523,94.4336,1.1137e-05,4e-07,0.0,0 STARLINK-5919,1 55927U 23037P   24031.17537570  .00000040  00000-0  11137-4 0  9999,2 55927  70.0001  82.0564 0002632 265.6523  94.4336 14.98334993 48717,6950.177,96.107,573.872,570.213,0.0
55927.0,STARLINK-5919,PAYLOAD,2024-01-31 13:49:20,14.98334762,0.0002623,70.0001,81.0465,264.6713,95.4147,1.1425e-05,4.3e-07,0.0,0 STARLINK-5919,1 55927U 23037P   24031.57593467  .00000043  00000-0  11425-4 0  9993,2 55927  70.0001  81.0465 0002623 264.6713  95.4147 14.98334762 48430,6950.178,96.107,573.866,570.22,0.0
55927.0,STARLINK-5919,PAYLOAD,2024-02-01 04:14:33,14.9832807,0.0002695,69.9997,79.5309,265.8563,94.2288,4.4105e-05,4.33e-06,0.0,0 STARLINK-5919,1 55927U 23037P   24032.17677719  .00000433  00000-0  44105-4 0  9997,2 55927  69.9997  79.5309 0002695 265.8563  94.2288 14.98328070 48860,6950.199,96.107,573.937,570.191,0.0
55927.0,STARLINK-5919,PAYLOAD,2024-02-01 12:15:13,14.98327347,0.00027,69.9998,78.6897,265.0713,95.0137,2.9909e-05,2.64e-06,0.0,0 STARLINK-5919,1 55927U 23037P   24032.51057841  .00000264  00000-0  29909-4 0  9990,2 55927  69.9998  78.6897 0002700 265.0713  95.0137 14.98327347 48575,6950.201,96.107,573.943,570.19,0.0
55927.0,STARLINK-5919,PAYLOAD,2024-02-02 04:16:34,14.98331266,0.0002612,70.0002,77.0074,255.1419,104.945,-8.9977e-06,-2e-06,0.0,0 STARLINK-5919,1 55927U 23037P   24033.17817669 -.00000200  00000-0 -89977-5 0  9999,2 55927  70.0002  77.0074 0002612 255.1419 104.9450 14.98331266 49012,6950.189,96.107,573.869,570.239,0.0
55927.0,STARLINK-5919,PAYLOAD,2024-02-02 12:17:14,14.9833044,0.0002765,69.9997,76.1642,267.5646,92.5197,-2.4122e-05,-3.81e-06,0.0,0 STARLINK-5919,1 55927U 23037P   24033.51197787 -.00000381  00000-0 -24122-4 0  9999,2 55927  69.9997  76.1642 0002765 267.5646  92.5197 14.98330440 48721,6950.192,96.107,573.978,570.135,0.0
